{"type": "FeatureCollection", "features": [ {"type": "Feature", "properties": {"norad_id": 66880, "name": "STARLINK-35844", "group": "last-30-days", "lat": -33.21549033407417, "lon": -4.996827445978344, "alt_km": 354.9393931182003, "timestamp": "2025-12-22T14:45:56.098518+00:00", "meta": {"OBJECT_NAME": "STARLINK-35844", "OBJECT_ID": "2025-283C", "EPOCH": "2025-12-22T06:00:02.000160", "MEAN_MOTION": 15.74486078, "ECCENTRICITY": 0.00011648, "INCLINATION": 53.1581, "RA_OF_ASC_NODE": 26.2169, "ARG_OF_PERICENTER": 83.11, "MEAN_ANOMALY": 323.4761, "EPHEMERIS_TYPE": 0, "CLASSIFICATION_TYPE": "U", "NORAD_CAT_ID": 66880, "ELEMENT_SET_NO": 999, "REV_AT_EPOCH": 395, "BSTAR": -0.013924629, "MEAN_MOTION_DOT": -0.01810019, "MEAN_MOTION_DDOT": 0}, "tle": {"line1": "1 66880U 25283C   25356.25002315 -.01810019  00000+0 -13925-1 0  9999", "line2": "2 66880  53.1581  26.2169 0001164  83.1100 323.4761 15.74486078  3957"}}, "geometry": {"type": "Point", "coordinates": [-4.996827445978344, -33.21549033407417]}}, {"type": "Feature", "properties": {"norad_id": 66881, "name": "STARLINK-35860", "group": "last-30-days", "lat": -30.507947791687315, "lon": -1.8215689424107073, "alt_km": 354.30755114393014, "timestamp": "2025-12-22T14:45:56.098528+00:00", "meta": {"OBJECT_NAME": "STARLINK-35860", "OBJECT_ID": "2025-283D", "EPOCH": "2025-12-22T06:00:02.000160", "MEAN_MOTION": 15.74480022, "ECCENTRICITY": 8.361e-05, "INCLINATION": 53.1582, "RA_OF_ASC_NODE": 26.2086, "ARG_OF_PERICENTER": 68.6898, "MEAN_ANOMALY": 341.7288, "EPHEMERIS_TYPE": 0, "CLASSIFICATION_TYPE": "U", "NORAD_CAT_ID": 66881, "ELEMENT_SET_NO": 999, "REV_AT_EPOCH": 395, "BSTAR": -0.013848942, "MEAN_MOTION_DOT": -0.01800748, "MEAN_MOTION_DDOT": 0}, "tle": {"line1": "1 66881U 25283D   25356.25002315 -.01800748  00000+0 -13849-1 0  9993", "line2": "2 66881  53.1582  26.2086 0000836  68.6898 341.7288 15.74480022  3954"}}, "geometry": {"type": "Point", "coordinates": [-1.8215689424107073, -30.507947791687315]}}, {"type": "Feature", "properties": {"norad_id": 66882, "name": "STARLINK-35912", "group": "last-30-days", "lat": -29.129139306466737, "lon": -0.30419060769408285, "alt_km": 354.38369037467146, "timestamp": "2025-12-22T14:45:56.098538+00:00", "meta": {"OBJECT_NAME": "STARLINK-35912", "OBJECT_ID": "2025-283E", "EPOCH": "2025-12-22T06:00:02.000160", "MEAN_MOTION": 15.74480829, "ECCENTRICITY": 0.00014124, "INCLINATION": 53.1579, "RA_OF_ASC_NODE": 26.205, "ARG_OF_PERICENTER": 59.8502, "MEAN_ANOMALY": 352.4855, "EPHEMERIS_TYPE": 0, "CLASSIFICATION_TYPE": "U", "NORAD_CAT_ID": 66882, "ELEMENT_SET_NO": 999, "REV_AT_EPOCH": 395, "BSTAR": -0.013873593, "MEAN_MOTION_DOT": -0.01804058, "MEAN_MOTION_DDOT": 0}, "tle": {"line1": "1 66882U 25283E   25356.25002315 -.01804058  00000+0 -13874-1 0  9990", "line2": "2 66882  53.1579  26.2050 0001412  59.8502 352.4855 15.74480829  3951"}}, "geometry": {"type": "Point", "coordinates": [-0.30419060769408285, -29.129139306466737]}}, {"type": "Feature", "properties": {"norad_id": 66883, "name": "STARLINK-35947", "group": "last-30-days", "lat": -27.725655254912528, "lon": 1.1813613535438292, "alt_km": 354.33467141256915, "timestamp": "2025-12-22T14:45:56.098550+00:00", "meta": {"OBJECT_NAME": "STARLINK-35947", "OBJECT_ID": "2025-283F", "EPOCH": "2025-12-22T06:00:02.000160", "MEAN_MOTION": 15.7449043, "ECCENTRICITY": 0.00011802, "INCLINATION": 53.158, "RA_OF_ASC_NODE": 26.2014, "ARG_OF_PERICENTER": 69.1215, "MEAN_ANOMALY": 345.1237, "EPHEMERIS_TYPE": 0, "CLASSIFICATION_TYPE": "U", "NORAD_CAT_ID": 66883, "ELEMENT_SET_NO": 999, "REV_AT_EPOCH": 400, "BSTAR": -0.01392311, "MEAN_MOTION_DOT": -0.01810161, "MEAN_MOTION_DDOT": 0}, "tle": {"line1": "1 66883U 25283F   25356.25002315 -.01810161  00000+0 -13923-1 0  9998", "line2": "2 66883  53.1580  26.2014 0001180  69.1215 345.1237 15.74490430  4000"}}, "geometry": {"type": "Point", "coordinates": [1.1813613535438292, -27.725655254912528]}}, {"type": "Feature", "properties": {"norad_id": 66884, "name": "STARLINK-36057", "group": "last-30-days", "lat": -24.877835751586282, "lon": 4.034981955372327, "alt_km": 354.3852708784334, "timestamp": "2025-12-22T14:45:56.098562+00:00", "meta": {"OBJECT_NAME": "STARLINK-36057", "OBJECT_ID": "2025-283G", "EPOCH": "2025-12-22T06:00:02.000160", "MEAN_MOTION": 15.7447906, "ECCENTRICITY": 0.00011682, "INCLINATION": 53.158, "RA_OF_ASC_NODE": 26.1926, "ARG_OF_PERICENTER": 97.7302, "MEAN_ANOMALY": 320.3576, "EPHEMERIS_TYPE": 0, "CLASSIFICATION_TYPE": "U", "NORAD_CAT_ID": 66884, "ELEMENT_SET_NO": 999, "REV_AT_EPOCH": 395, "BSTAR": -0.013832436, "MEAN_MOTION_DOT": -0.01799061, "MEAN_MOTION_DDOT": 0}, "tle": {"line1": "1 66884U 25283G   25356.25002315 -.01799061  00000+0 -13832-1 0  9993", "line2": "2 66884  53.1580  26.1926 0001168  97.7302 320.3576 15.74479060  3952"}}, "geometry": {"type": "Point", "coordinates": [4.034981955372327, -24.877835751586282]}}, {"type": "Feature", "properties": {"norad_id": 66885, "name": "STARLINK-35954", "group": "last-30-days", "lat": -26.309839389937345, "lon": 2.6240871934883163, "alt_km": 354.2714769081904, "timestamp": "2025-12-22T14:45:56.098572+00:00", "meta": {"OBJECT_NAME": "STARLINK-35954", "OBJECT_ID": "2025-283H", "EPOCH": "2025-12-22T06:00:02.000160", "MEAN_MOTION": 15.74476279, "ECCENTRICITY": 0.00012191, "INCLINATION": 53.1579, "RA_OF_ASC_NODE": 26.1964, "ARG_OF_PERICENTER": 73.3162, "MEAN_ANOMALY": 342.8571, "EPHEMERIS_TYPE": 0, "CLASSIFICATION_TYPE": "U", "NORAD_CAT_ID": 66885, "ELEMENT_SET_NO": 999, "REV_AT_EPOCH": 395, "BSTAR": -0.013816984, "MEAN_MOTION_DOT": -0.01797153, "MEAN_MOTION_DDOT": 0}, "tle": {"line1": "1 66885U 25283H   25356.25002315 -.01797153  00000+0 -13817-1 0  9997", "line2": "2 66885  53.1579  26.1964 0001219  73.3162 342.8571 15.74476279  3957"}}, "geometry": {"type": "Point", "coordinates": [2.6240871934883163, -26.309839389937345]}}, {"type": "Feature", "properties": {"norad_id": 66886, "name": "STARLINK-35900", "group": "last-30-days", "lat": -23.437175414475167, "lon": 5.4084486348456915, "alt_km": 354.1282632905486, "timestamp": "2025-12-22T14:45:56.098585+00:00", "meta": {"OBJECT_NAME": "STARLINK-35900", "OBJECT_ID": "2025-283J", "EPOCH": "2025-12-22T06:00:02.000160", "MEAN_MOTION": 15.74479999, "ECCENTRICITY": 0.0001237, "INCLINATION": 53.1579, "RA_OF_ASC_NODE": 26.1882, "ARG_OF_PERICENTER": 82.7544, "MEAN_ANOMALY": 337.252, "EPHEMERIS_TYPE": 0, "CLASSIFICATION_TYPE": "U", "NORAD_CAT_ID": 66886, "ELEMENT_SET_NO": 999, "REV_AT_EPOCH": 395, "BSTAR": -0.013885802, "MEAN_MOTION_DOT": -0.01805246, "MEAN_MOTION_DDOT": 0}, "tle": {"line1": "1 66886U 25283J   25356.25002315 -.01805246  00000+0 -13886-1 0  9997", "line2": "2 66886  53.1579  26.1882 0001237  82.7544 337.2520 15.74479999  3959"}}, "geometry": {"type": "Point", "coordinates": [5.4084486348456915, -23.437175414475167]}}, {"type": "Feature", "properties": {"norad_id": 66887, "name": "STARLINK-35925", "group": "last-30-days", "lat": -21.983936969265933, "lon": 6.753395457034113, "alt_km": 353.68432119332647, "timestamp": "2025-12-22T14:45:56.098595+00:00", "meta": {"OBJECT_NAME": "STARLINK-35925", "OBJECT_ID": "2025-283K", "EPOCH": "2025-12-22T06:00:02.000160", "MEAN_MOTION": 15.74475408, "ECCENTRICITY": 0.00013537, "INCLINATION": 53.1577, "RA_OF_ASC_NODE": 26.1845, "ARG_OF_PERICENTER": 59.5168, "MEAN_ANOMALY": 2.4078, "EPHEMERIS_TYPE": 0, "CLASSIFICATION_TYPE": "U", "NORAD_CAT_ID": 66887, "ELEMENT_SET_NO": 999, "REV_AT_EPOCH": 395, "BSTAR": -0.01381825, "MEAN_MOTION_DOT": -0.01797344, "MEAN_MOTION_DDOT": 0}, "tle": {"line1": "1 66887U 25283K   25356.25002315 -.01797344  00000+0 -13818-1 0  9992", "line2": "2 66887  53.1577  26.1845 0001353  59.5168   2.4078 15.74475408  3950"}}, "geometry": {"type": "Point", "coordinates": [6.753395457034113, -21.983936969265933]}}, {"type": "Feature", "properties": {"norad_id": 66888, "name": "STARLINK-35919", "group": "last-30-days", "lat": -20.51661461639782, "lon": 8.073459448165346, "alt_km": 353.57628404940715, "timestamp": "2025-12-22T14:45:56.098605+00:00", "meta": {"OBJECT_NAME": "STARLINK-35919", "OBJECT_ID": "2025-283L", "EPOCH": "2025-12-22T06:00:02.000160", "MEAN_MOTION": 15.744899, "ECCENTRICITY": 0.00014574, "INCLINATION": 53.1577, "RA_OF_ASC_NODE": 26.1803, "ARG_OF_PERICENTER": 61.9591, "MEAN_ANOMALY": 1.8782, "EPHEMERIS_TYPE": 0, "CLASSIFICATION_TYPE": "U", "NORAD_CAT_ID": 66888, "ELEMENT_SET_NO": 999, "REV_AT_EPOCH": 395, "BSTAR": -0.013982417, "MEAN_MOTION_DOT": -0.01817081, "MEAN_MOTION_DDOT": 0}, "tle": {"line1": "1 66888U 25283L   25356.25002315 -.01817081  00000+0 -13982-1 0  9996", "line2": "2 66888  53.1577  26.1803 0001457  61.9591   1.8782 15.74489900  3954"}}, "geometry": {"type": "Point", "coordinates": [8.073459448165346, -20.51661461639782]}}, {"type": "Feature", "properties": {"norad_id": 66889, "name": "STARLINK-35852", "group": "last-30-days", "lat": -19.042806785478103, "lon": 9.365309921960936, "alt_km": 353.64537667336845, "timestamp": "2025-12-22T14:45:56.098615+00:00", "meta": {"OBJECT_NAME": "STARLINK-35852", "OBJECT_ID": "2025-283M", "EPOCH": "2025-12-22T06:00:02.000160", "MEAN_MOTION": 15.74477692, "ECCENTRICITY": 0.00012334, "INCLINATION": 53.1579, "RA_OF_ASC_NODE": 26.1759, "ARG_OF_PERICENTER": 81.1925, "MEAN_ANOMALY": 344.5607, "EPHEMERIS_TYPE": 0, "CLASSIFICATION_TYPE": "U", "NORAD_CAT_ID": 66889, "ELEMENT_SET_NO": 999, "REV_AT_EPOCH": 395, "BSTAR": -0.013823598, "MEAN_MOTION_DOT": -0.01798013, "MEAN_MOTION_DDOT": 0}, "tle": {"line1": "1 66889U 25283M   25356.25002315 -.01798013  00000+0 -13824-1 0  9995", "line2": "2 66889  53.1579  26.1759 0001233  81.1925 344.5607 15.74477692  3952"}}, "geometry": {"type": "Point", "coordinates": [9.365309921960936, -19.042806785478103]}}]}